NORAD_CAT_ID,OBJECT_NAME,OBJECT_TYPE,EPOCH,MEAN_MOTION,ECCENTRICITY,INCLINATION,RA_OF_ASC_NODE,ARG_OF_PERICENTER,MEAN_ANOMALY,BSTAR,MEAN_MOTION_DOT,MEAN_MOTION_DDOT,TLE_LINE0,TLE_LINE1,TLE_LINE2,SEMIMAJOR_AXIS,PERIOD,APOGEE,PERIGEE,DECAYED
52874.0,STARLINK-4210,PAYLOAD,2023-06-16 17:18:23,15.08837772,0.0001047,53.2162,169.6877,78.4793,281.6316,3.2222e-05,2.25e-06,0.0,0 STARLINK-4210,1 52874U 22062AW  23167.72110844  .00000225  00000-0  32222-4 0  9998,2 52874  53.2162 169.6877 0001047  78.4793 281.6316 15.08837772 55556,6917.887,95.438,540.477,539.028,0.0
52874.0,STARLINK-4210,PAYLOAD,2023-06-17 09:12:15,15.08836112,0.0001058,53.2159,166.7138,78.4958,281.6153,3.5431e-05,2.76e-06,0.0,0 STARLINK-4210,1 52874U 22062AW  23168.38351107  .00000276  00000-0  35431-4 0  9991,2 52874  53.2159 166.7138 0001058  78.4958 281.6153 15.08836112 56147,6917.892,95.438,540.489,539.025,0.0
52874.0,STARLINK-4210,PAYLOAD,2023-06-17 17:09:11,15.0883728,0.0001066,53.216,165.2278,78.6533,281.4578,3.3106e-05,2.39e-06,0.0,0 STARLINK-4210,1 52874U 22062AW  23168.71471092  .00000239  00000-0  33106-4 0  9990,2 52874  53.2160 165.2278 0001066  78.6533 281.4578 15.08837280 55705,6917.889,95.438,540.491,539.016,0.0
52874.0,STARLINK-4210,PAYLOAD,2023-06-18 09:03:02,15.08842612,0.0001084,53.2159,162.2538,78.804,281.3074,3.048e-05,1.97e-06,0.0,0 STARLINK-4210,1 52874U 22062AW  23169.37710742  .00000197  00000-0  30480-4 0  9996,2 52874  53.2159 162.2538 0001084  78.8040 281.3074 15.08842612 55800,6917.872,95.437,540.487,538.988,0.0
52874.0,STARLINK-4210,PAYLOAD,2023-06-18 16:59:57,15.08840661,0.0001076,53.216,160.7669,78.6395,281.4718,2.8943e-05,1.73e-06,0.0,0 STARLINK-4210,1 52874U 22062AW  23169.70830817  .00000173  00000-0  28943-4 0  9994,2 52874  53.2160 160.7669 0001076  78.6395 281.4718 15.08840661 56340,6917.878,95.438,540.488,538.999,0.0
52874.0,STARLINK-4210,PAYLOAD,2023-06-19 08:53:48,15.08841377,0.0001071,53.2161,157.7927,82.1323,277.979,6.5814e-05,7.6e-06,0.0,0 STARLINK-4210,1 52874U 22062AW  23170.37070599  .00000760  00000-0  65814-4 0  9992,2 52874  53.2161 157.7927 0001071  82.1323 277.9790 15.08841377 55951,6917.876,95.437,540.482,539.0,0.0
52874.0,STARLINK-4210,PAYLOAD,2023-06-19 23:12:17,15.08838125,0.0001086,53.2161,155.1153,86.6479,273.4638,-1.2216e-05,-4.82e-06,0.0,0 STARLINK-4210,1 52874U 22062AW  23170.96687049 -.00000482  00000-0 -12216-4 0  9992,2 52874  53.2161 155.1153 0001086  86.6479 273.4638 15.08838125 56535,6917.886,95.438,540.502,539.0,0.0
52874.0,STARLINK-4210,PAYLOAD,2023-06-20 08:44:36,15.08839119,0.0001104,53.2161,153.3313,87.3909,272.721,2.1503e-06,-2.54e-06,0.0,0 STARLINK-4210,1 52874U 22062AW  23171.36430920 -.00000254  00000-0  21503-5 0  9997,2 52874  53.2161 153.3313 0001104  87.3909 272.7210 15.08839119 56105,6917.883,95.438,540.512,538.984,0.0
52874.0,STARLINK-4210,PAYLOAD,2023-06-21 02:13:50,15.08839093,0.0001092,53.2159,150.0601,87.6482,272.4635,5.4282e-06,-2.01e-06,0.0,0 STARLINK-4210,1 52874U 22062AW  23172.09294965 -.00000201  00000-0  54282-5 0  9997,2 52874  53.2159 150.0601 0001092  87.6482 272.4635 15.08839093 56706,6917.883,95.438,540.504,538.993,0.0
52874.0,STARLINK-4210,PAYLOAD,2023-06-21 05:24:37,15.08840239,0.0001091,53.216,149.4653,87.2776,272.8341,1.1174e-05,-1.1e-06,0.0,0 STARLINK-4210,1 52874U 22062AW  23172.22542888 -.00000110  00000-0  11174-4 0  9993,2 52874  53.2160 149.4653 0001091  87.2776 272.8341 15.08840239 56238,6917.88,95.438,540.499,538.99,0.0
52874.0,STARLINK-4210,PAYLOAD,2023-06-21 14:56:56,15.08837302,0.0001104,53.216,147.6811,87.2641,272.8478,-4.4392e-06,-3.58e-06,0.0,0 STARLINK-4210,1 52874U 22062AW  23172.62287146 -.00000358  00000-0 -44392-5 0  9994,2 52874  53.2160 147.6811 0001104  87.2641 272.8478 15.08837302 56294,6917.889,95.438,540.517,538.99,0.0
52874.0,STARLINK-4210,PAYLOAD,2023-06-22 08:26:10,15.08837752,0.0001063,53.2162,144.4115,85.3969,274.7145,3.0301e-05,1.94e-06,0.0,0 STARLINK-4210,1 52874U 22062AW  23173.35151216  .00000194  00000-0  30301-4 0  9993,2 52874  53.2162 144.4115 0001063  85.3969 274.7145 15.08837752 56891,6917.887,95.438,540.488,539.017,0.0
52874.0,STARLINK-4210,PAYLOAD,2023-06-23 14:38:30,15.08835519,0.0001054,53.2162,138.7628,97.127,262.9842,2.5205e-05,1.13e-06,0.0,0 STARLINK-4210,1 52874U 22062AW  23174.61007721  .00000113  00000-0  25205-4 0  9992,2 52874  53.2162 138.7628 0001054  97.1270 262.9842 15.08835519 57086,6917.894,95.438,540.488,539.03,0.0
52874.0,STARLINK-4210,PAYLOAD,2023-06-24 06:32:21,15.0884289,0.0001082,53.2162,135.7889,95.5641,264.5475,7.4877e-05,9.04e-06,0.0,0 STARLINK-4210,1 52874U 22062AW  23175.27247286  .00000904  00000-0  74877-4 0  9994,2 52874  53.2162 135.7889 0001082  95.5641 264.5475 15.08842890 57188,6917.872,95.437,540.485,538.988,0.0
52874.0,STARLINK-4210,PAYLOAD,2023-06-25 15:55:28,15.08835377,0.0001163,53.2165,129.5436,88.2345,271.878,2.3228e-05,8.2e-07,0.0,0 STARLINK-4210,1 52874U 22062AW  23176.66351983  .00000082  00000-0  23228-4 0  9999,2 52874  53.2165 129.5436 0001163  88.2345 271.8780 15.08835377 57395,6917.895,95.438,540.564,538.955,0.0
52874.0,STARLINK-4210,PAYLOAD,2023-06-27 02:53:57,15.08837619,0.0001104,53.2174,123.0025,88.9837,271.1282,2.7175e-05,1.45e-06,0.0,0 STARLINK-4210,1 52874U 22062AW  23178.12080079  .00000145  00000-0  27175-4 0  9992,2 52874  53.2174 123.0025 0001104  88.9837 271.1282 15.08837619 57612,6917.888,95.438,540.516,538.989,0.0
52874.0,STARLINK-4210,PAYLOAD,2023-06-28 05:55:30,15.08843867,0.0001174,53.217,117.9467,89.7113,270.4014,8.5003e-05,1.065e-05,0.0,0 STARLINK-4210,1 52874U 22062AW  23179.24687548  .00001065  00000-0  85003-4 0  9996,2 52874  53.2170 117.9467 0001174  89.7113 270.4014 15.08843867 57788,6917.869,95.437,540.546,538.921,0.0
52874.0,STARLINK-4210,PAYLOAD,2023-06-29 04:10:54,15.08840181,0.0001296,53.2172,113.7836,88.925,271.189,3.4802e-05,2.66e-06,0.0,0 STARLINK-4210,1 52874U 22062AW  23180.17424146  .00000266  00000-0  34802-4 0  9996,2 52874  53.2172 113.7836 0001296  88.9250 271.1890 15.08840181 57924,6917.88,95.438,540.641,538.848,0.0
52874.0,STARLINK-4210,PAYLOAD,2023-07-01 00:41:43,15.08831238,0.0001269,53.2176,105.4586,97.8276,262.286,-4.3596e-05,-9.81e-06,0.0,0 STARLINK-4210,1 52874U 22062AW  23182.02897299 -.00000981  00000-0 -43596-4 0  9991,2 52874  53.2176 105.4586 0001269  97.8276 262.2860 15.08831238 58208,6917.907,95.438,540.65,538.894,0.0
52874.0,STARLINK-4210,PAYLOAD,2023-07-01 18:10:57,15.08835068,0.0001328,53.2176,102.1875,90.7546,269.3598,5.242e-05,5.46e-06,0.0,0 STARLINK-4210,1 52874U 22062AW  23182.75761055  .00000546  00000-0  52420-4 0  9992,2 52874  53.2176 102.1875 0001328  90.7546 269.3598 15.08835068 58314,6917.895,95.438,540.679,538.842,0.0
52874.0,STARLINK-4210,PAYLOAD,2023-07-03 01:58:39,15.08841067,0.000126,53.217,96.2394,89.8336,270.2801,0.00010372,1.363e-05,0.0,0 STARLINK-4210,1 52874U 22062AW  23184.08240724  .00001363  00000-0  10372-3 0  9992,2 52874  53.2170  96.2394 0001260  89.8336 270.2801 15.08841067 58514,6917.877,95.437,540.614,538.87,0.0
52874.0,STARLINK-4210,PAYLOAD,2023-07-04 03:24:50,15.08845833,0.0001285,53.2172,91.4819,88.5253,271.5886,6.1895e-05,6.97e-06,0.0,0 STARLINK-4210,1 52874U 22062AW  23185.14224541  .00000697  00000-0  61895-4 0  9995,2 52874  53.2172  91.4819 0001285  88.5253 271.5886 15.08845833 58675,6917.863,95.437,540.617,538.839,0.0
52874.0,STARLINK-4210,PAYLOAD,2023-07-06 01:31:01,15.08840465,0.0001207,53.2179,82.8578,89.2697,270.8434,-1.1942e-05,-4.78e-06,0.0,0 STARLINK-4210,1 52874U 22062AW  23187.06320894 -.00000478  00000-0 -11942-4 0  9993,2 52874  53.2179  82.8578 0001207  89.2697 270.8434 15.08840465 58961,6917.879,95.438,540.579,538.909,0.0
52874.0,STARLINK-4210,PAYLOAD,2023-07-07 02:57:11,15.08845926,0.0001211,53.2185,78.0998,92.0222,268.0909,2.4181e-05,9.7e-07,0.0,0 STARLINK-4210,1 52874U 22062AW  23188.12304462  .00000097  00000-0  24181-4 0  9998,2 52874  53.2185  78.0998 0001211  92.0222 268.0909 15.08845926 59124,6917.862,95.437,540.565,538.89,0.0
52874.0,STARLINK-4210,PAYLOAD,2023-07-07 23:37:12,15.0883531,0.0001248,53.2188,74.239,105.7135,254.3994,3.0713e-05,2.01e-06,0.0,0 STARLINK-4210,1 52874U 22062AW  23188.98417594  .00000201  00000-0  30713-4 0  9998,2 52874  53.2188  74.2390 0001248 105.7135 254.3994 15.08835310 59258,6917.895,95.438,540.623,538.896,0.0
52874.0,STARLINK-4210,PAYLOAD,2023-07-08 09:09:30,15.08850301,0.0001058,53.2184,72.4509,90.0445,270.0669,0.00012831,1.755e-05,0.0,0 STARLINK-4210,1 52874U 22062AW  23189.38160068  .00001755  00000-0  12831-3 0  9999,2 52874  53.2184  72.4509 0001058  90.0445 270.0669 15.08850301 59313,6917.849,95.437,540.446,538.982,0.0
52874.0,STARLINK-4210,PAYLOAD,2023-07-09 02:38:46,15.08833711,0.0001102,53.218,69.1798,94.1134,265.9984,-7.8658e-05,-1.539e-05,0.0,0 STARLINK-4210,1 52874U 22062AW  23190.11025855 -.00001539  00000-0 -78658-4 0  9998,2 52874  53.2180  69.1798 0001102  94.1134 265.9984 15.08833711 59423,6917.9,95.438,540.527,539.002,0.0
52874.0,STARLINK-4210,PAYLOAD,2023-07-10 00:54:09,15.08844417,0.0001095,53.218,65.0166,86.0719,274.0398,4.7317e-05,4.65e-06,0.0,0 STARLINK-4210,1 52874U 22062AW  23191.03761143  .00000465  00000-0  47317-4 0  9990,2 52874  53.2180  65.0166 0001095  86.0719 274.0398 15.08844417 59567,6917.867,95.437,540.489,538.974,0.0
52874.0,STARLINK-4210,PAYLOAD,2023-07-10 18:23:24,15.08836786,0.0001151,53.2177,61.7464,92.0911,268.0213,7.0654e-05,8.37e-06,0.0,0 STARLINK-4210,1 52874U 22062AW  23191.76625479  .00000837  00000-0  70654-4 0  9994,2 52874  53.2177  61.7464 0001151  92.0911 268.0213 15.08836786 59672,6917.89,95.438,540.551,538.959,0.0
52874.0,STARLINK-4210,PAYLOAD,2023-07-10 21:34:10,15.08841229,0.0001154,53.2177,61.152,93.019,267.0935,0.0001033,1.357e-05,0.0,0 STARLINK-4210,1 52874U 22062AW  23191.89873102  .00001357  00000-0  10330-3 0  9998,2 52874  53.2177  61.1520 0001154  93.0190 267.0935 15.08841229 59692,6917.877,95.437,540.54,538.943,0.0
